GLOBALSTAR M084         
1 38040U 11080A   25080.95838146 -.00000073  00000+0  17302-3 0  9990
2 38040  52.0020 314.0322 0000638 107.4885 265.8609 12.62263913611651
GLOBALSTAR M080         
1 38041U 11080B   25080.93194837 -.00000070  00000+0  18778-3 0  9996
2 38041  52.0076 315.6905 0000838 117.8467 254.5240 12.62270287611771
GLOBALSTAR M082         
1 38042U 11080C   25080.89588050 -.00000069  00000+0  19394-3 0  9999
2 38042  52.0066 271.2340 0000898  66.7322  82.7980 12.62264429612470
GLOBALSTAR M092         
1 38043U 11080D   25080.84568049 -.00000079  00000+0  13890-3 0  9997
2 38043  52.0117   1.7559 0000540  74.9834 327.0258 12.62261175610925
GLOBALSTAR M090         
1 38044U 11080E   25080.92200387 -.00000076  00000+0  15688-3 0  9999
2 38044  51.9873 265.0756 0000894  83.2149  64.3849 12.62268421612594
GLOBALSTAR M086         
1 38045U 11080F   25080.94958458 -.00000067  00000+0  20267-3 0  9990
2 38045  51.9885 265.5358 0001670 111.7777  41.6276 12.62268376612544
GLOBALSTAR M097         
1 39072U 13005A   25080.70490547 -.00000090  00000+0  79532-4 0  9990
2 39072  52.0037 180.7376 0000824 105.0296 255.0662 12.62271039559760
